COSMOS 2425 (716)       
1 29670U 06062A   18353.71110199 -.00000019  00000-0  10000-3 0  9992
2 29670  65.1916 286.2623 0022642 342.1043 219.0964  2.13104922 93261
COSMOS 2426 (717)       
1 29671U 06062B   18353.95841968 -.00000018  00000-0  10000-3 0  9993
2 29671  65.2085 286.3560 0016769 170.6434  74.7216  2.13103089 93272
COSMOS 2433 (720)       
1 32275U 07052A   18353.84886265 -.00000028  00000-0  10000-3 0  9995
2 32275  65.7739  47.1392 0004411 247.6426 249.8590  2.13104544 86785
COSMOS 2432 (719)       
1 32276U 07052B   18353.67254333 -.00000029  00000-0  10000-3 0  9993
2 32276  65.7857  47.2265 0010703 322.4930 351.2410  2.13103762 86779
COSMOS 2434 (721)       
1 32393U 07065A   18353.58422582 -.00000019  00000-0  00000-0 0  9995
2 32393  64.8056 285.1546 0001905 106.8627  75.2523  2.13102948 85486
COSMOS 2436 (723)       
1 32395U 07065C   18353.61587767 -.00000019  00000-0  10000-3 0  9992
2 32395  64.8163 285.2061 0016218 354.4866 263.3163  2.13104278 85410
COSMOS 2456 (730)       
1 36111U 09070A   18353.59547928  .00000118  00000-0  00000-0 0  9997
2 36111  64.1922 164.7646 0003000 353.2350  10.2619  2.13102928 70156
COSMOS 2457 (733)       
1 36112U 09070B   18353.54411862  .00000119  00000-0  00000-0 0  9991
2 36112  64.1759 164.6736 0006929 147.2250 302.8062  2.13101545 70153
COSMOS 2458 (734)       
1 36113U 09070C   18353.50796506  .00000119  00000-0  10000-3 0  9993
2 36113  64.1790 164.6878 0003182  53.9965  50.4012  2.13091782 70152
COSMOS 2459 (731)       
1 36400U 10007A   18353.57676368 -.00000030  00000-0  10000-3 0  9997
2 36400  65.6803  46.1891 0025496 347.5988 158.5478  2.13102101 68500
COSMOS 2461 (735)       
1 36401U 10007B   18353.50632404 -.00000030  00000-0  10000-3 0  9994
2 36401  65.6744  46.1636 0004788  66.9903 295.6779  2.13102232 68504
COSMOS 2460 (732)       
1 36402U 10007C   18353.54409933 -.00000030  00000-0  10000-3 0  9998
2 36402  65.6651  46.1293 0001721 235.5937 196.3267  2.13101490 68500
COSMOS 2464 (736)       
1 37139U 10041C   18353.69551635 -.00000019  00000-0  00000-0 0  9990
2 37139  64.4082 284.8626 0024972   8.1468 127.1829  2.13102912 64579
COSMOS 2471 (701K)      
1 37372U 11009A   18353.67612328 -.00000029  00000-0  00000+0 0  9999
2 37372  65.6598  46.0683 0009856 231.6193  89.5702  2.13107644 60772
COSMOS 2474 (742)       
1 37829U 11055A   18353.67535610  .00000119  00000-0  00000+0 0  9994
2 37829  64.5154 165.5582 0006519 235.5941  46.4303  2.13101838 56141
COSMOS 2476 (744)       
1 37867U 11064A   18353.70340429  .00000119  00000-0  00000-0 0  9993
2 37867  64.4941 165.6142 0016536 235.6089 114.0158  2.13101913 55494
COSMOS 2477 (745)       
1 37868U 11064B   18353.64790897  .00000120  00000-0  00000-0 0  9997
2 37868  64.5021 165.6664 0014193 236.3264 249.5387  2.13101760 55458
COSMOS 2475 (743)       
1 37869U 11064C   18353.50911302  .00000121  00000-0  00000+0 0  9999
2 37869  64.5100 165.6673 0017960 265.1279  71.1947  2.13102032 55452
COSMOS 2485 (747)       
1 39155U 13019A   18353.42816058  .00000121  00000-0  00000-0 0  9995
2 39155  64.6633 165.7730 0017090 230.3675 312.9321  2.13101933 43961
COSMOS 2492 (754)       
1 39620U 14012A   18353.53868784 -.00000030  00000-0  10000-3 0  9995
2 39620  65.5545  45.9887 0014099 320.8511 342.1870  2.13103419 36914
COSMOS 2500 (755)       
1 40001U 14032A   18353.53896591 -.00000030  00000-0  00000-0 0  9995
2 40001  65.4960  45.9434 0007849 213.7957 311.2788  2.13102579 35130
COSMOS 2501 (702K)      
1 40315U 14075A   18353.88747949 -.00000019  00000-0  00000+0 0  9996
2 40315  64.1311 286.0018 0015982 211.6035  20.5389  2.13098442 31542
COSMOS 2514 (751)       
1 41330U 16008A   18353.75092834 -.00000029  00000-0  00000+0 0  9995
2 41330  65.2982  45.9439 0011310 219.1420 289.8510  2.13103101 22306
COSMOS 2516 (753)       
1 41554U 16032A   18353.54362711 -.00000020  00000-0  00000-0 0  9993
2 41554  64.3539 285.9306 0012860 225.8125  14.9088  2.13101751 19906
COSMOS 2522 (752)       
1 42939U 17055A   18353.75136907 -.00000019  00000-0  00000-0 0  9994
2 42939  64.5844 285.9446 0008744 254.1596  12.3870  2.13102020  9666
